{"type": "FeatureCollection", "features": [ {"type": "Feature", "properties": {"norad_id": 29795, "name": "FENGYUN 1C DEB", "group": "fengyun-1c-debris", "lat": -62.667770952892354, "lon": -67.38584211218514, "alt_km": 845.2181555153184, "timestamp": "2025-12-27T10:28:59.065895+00:00", "meta": {"OBJECT_NAME": "FENGYUN 1C DEB", "OBJECT_ID": "1999-025CM", "EPOCH": "2025-12-27T03:16:47.206272", "MEAN_MOTION": 13.929168, "ECCENTRICITY": 0.0111266, "INCLINATION": 98.8711, "RA_OF_ASC_NODE": 129.9144, "ARG_OF_PERICENTER": 236.423, "MEAN_ANOMALY": 303.1647, "EPHEMERIS_TYPE": 0, "CLASSIFICATION_TYPE": "U", "NORAD_CAT_ID": 29795, "ELEMENT_SET_NO": 999, "REV_AT_EPOCH": 96265, "BSTAR": 0.00016805, "MEAN_MOTION_DOT": 1.87e-06, "MEAN_MOTION_DDOT": 0}, "tle": {"line1": "1 29795U 99025CM  25361.13665748  .00000187  00000+0  16805-3 0  9992", "line2": "2 29795  98.8711 129.9144 0111266 236.4230 303.1647 13.92916800962656"}}, "geometry": {"type": "Point", "coordinates": [-67.38584211218514, -62.667770952892354]}}, {"type": "Feature", "properties": {"norad_id": 29796, "name": "FENGYUN 1C DEB", "group": "fengyun-1c-debris", "lat": 5.6035773137945055, "lon": -125.97479993926339, "alt_km": 829.784008806796, "timestamp": "2025-12-27T10:28:59.065905+00:00", "meta": {"OBJECT_NAME": "FENGYUN 1C DEB", "OBJECT_ID": "1999-025CN", "EPOCH": "2025-12-27T03:07:10.341120", "MEAN_MOTION": 14.12371029, "ECCENTRICITY": 0.0052572, "INCLINATION": 98.8634, "RA_OF_ASC_NODE": 52.8446, "ARG_OF_PERICENTER": 226.8976, "MEAN_ANOMALY": 188.6494, "EPHEMERIS_TYPE": 0, "CLASSIFICATION_TYPE": "U", "NORAD_CAT_ID": 29796, "ELEMENT_SET_NO": 999, "REV_AT_EPOCH": 97264, "BSTAR": 0.00070353, "MEAN_MOTION_DOT": 1.269e-05, "MEAN_MOTION_DDOT": 0}, "tle": {"line1": "1 29796U 99025CN  25361.12998080  .00001269  00000+0  70353-3 0  9990", "line2": "2 29796  98.8634  52.8446 0052572 226.8976 188.6494 14.12371029972641"}}, "geometry": {"type": "Point", "coordinates": [-125.97479993926339, 5.6035773137945055]}}, {"type": "Feature", "properties": {"norad_id": 29798, "name": "FENGYUN 1C DEB", "group": "fengyun-1c-debris", "lat": -41.78128792850461, "lon": -122.84680535366158, "alt_km": 821.1745831122444, "timestamp": "2025-12-27T10:28:59.065916+00:00", "meta": {"OBJECT_NAME": "FENGYUN 1C DEB", "OBJECT_ID": "1999-025CQ", "EPOCH": "2025-12-27T04:35:26.520288", "MEAN_MOTION": 13.99635874, "ECCENTRICITY": 0.0112207, "INCLINATION": 99.2948, "RA_OF_ASC_NODE": 65.3181, "ARG_OF_PERICENTER": 233.1402, "MEAN_ANOMALY": 193.0525, "EPHEMERIS_TYPE": 0, "CLASSIFICATION_TYPE": "U", "NORAD_CAT_ID": 29798, "ELEMENT_SET_NO": 999, "REV_AT_EPOCH": 96127, "BSTAR": 0.0018802, "MEAN_MOTION_DOT": 2.855e-05, "MEAN_MOTION_DDOT": 0}, "tle": {"line1": "1 29798U 99025CQ  25361.19127917  .00002855  00000+0  18802-2 0  9994", "line2": "2 29798  99.2948  65.3181 0112207 233.1402 193.0525 13.99635874961275"}}, "geometry": {"type": "Point", "coordinates": [-122.84680535366158, -41.78128792850461]}}, {"type": "Feature", "properties": {"norad_id": 29800, "name": "FENGYUN 1C DEB", "group": "fengyun-1c-debris", "lat": -22.790592757450412, "lon": 25.161418448393484, "alt_km": 988.5611187067852, "timestamp": "2025-12-27T10:28:59.065926+00:00", "meta": {"OBJECT_NAME": "FENGYUN 1C DEB", "OBJECT_ID": "1999-025CS", "EPOCH": "2025-12-25T12:58:14.687328", "MEAN_MOTION": 13.98631422, "ECCENTRICITY": 0.0133875, "INCLINATION": 98.291, "RA_OF_ASC_NODE": 19.933, "ARG_OF_PERICENTER": 191.628, "MEAN_ANOMALY": 321.744, "EPHEMERIS_TYPE": 0, "CLASSIFICATION_TYPE": "U", "NORAD_CAT_ID": 29800, "ELEMENT_SET_NO": 999, "REV_AT_EPOCH": 95755, "BSTAR": 0.0014898, "MEAN_MOTION_DOT": 2.271e-05, "MEAN_MOTION_DDOT": 0}, "tle": {"line1": "1 29800U 99025CS  25359.54044777  .00002271  00000+0  14898-2 0  9999", "line2": "2 29800  98.2910  19.9330 0133875 191.6280 321.7440 13.98631422957550"}}, "geometry": {"type": "Point", "coordinates": [25.161418448393484, -22.790592757450412]}}, {"type": "Feature", "properties": {"norad_id": 29801, "name": "FENGYUN 1C DEB", "group": "fengyun-1c-debris", "lat": 70.0256856579152, "lon": -122.45334574721792, "alt_km": 829.808909047877, "timestamp": "2025-12-27T10:28:59.065936+00:00", "meta": {"OBJECT_NAME": "FENGYUN 1C DEB", "OBJECT_ID": "1999-025CT", "EPOCH": "2025-12-27T00:09:36.063360", "MEAN_MOTION": 14.35912862, "ECCENTRICITY": 0.0102979, "INCLINATION": 98.7951, "RA_OF_ASC_NODE": 262.3194, "ARG_OF_PERICENTER": 224.8678, "MEAN_ANOMALY": 145.545, "EPHEMERIS_TYPE": 0, "CLASSIFICATION_TYPE": "U", "NORAD_CAT_ID": 29801, "ELEMENT_SET_NO": 999, "REV_AT_EPOCH": 99146, "BSTAR": 0.0001959, "MEAN_MOTION_DOT": 5.55e-06, "MEAN_MOTION_DDOT": 0}, "tle": {"line1": "1 29801U 99025CT  25361.00666740  .00000555  00000+0  19590-3 0  9992", "line2": "2 29801  98.7951 262.3194 0102979 224.8678 145.5450 14.35912862991467"}}, "geometry": {"type": "Point", "coordinates": [-122.45334574721792, 70.0256856579152]}}, {"type": "Feature", "properties": {"norad_id": 29802, "name": "FENGYUN 1C DEB", "group": "fengyun-1c-debris", "lat": 20.148119054486184, "lon": 108.00054367509544, "alt_km": 683.4420543108727, "timestamp": "2025-12-27T10:28:59.065947+00:00", "meta": {"OBJECT_NAME": "FENGYUN 1C DEB", "OBJECT_ID": "1999-025CU", "EPOCH": "2025-12-26T06:34:51.436416", "MEAN_MOTION": 14.62667378, "ECCENTRICITY": 0.0037468, "INCLINATION": 98.6189, "RA_OF_ASC_NODE": 109.9775, "ARG_OF_PERICENTER": 296.1595, "MEAN_ANOMALY": 85.7073, "EPHEMERIS_TYPE": 0, "CLASSIFICATION_TYPE": "U", "NORAD_CAT_ID": 29802, "ELEMENT_SET_NO": 999, "REV_AT_EPOCH": 98671, "BSTAR": 0.0028562, "MEAN_MOTION_DOT": 0.00014654, "MEAN_MOTION_DDOT": 0}, "tle": {"line1": "1 29802U 99025CU  25360.27420644  .00014654  00000+0  28562-2 0  9995", "line2": "2 29802  98.6189 109.9775 0037468 296.1595  85.7073 14.62667378986718"}}, "geometry": {"type": "Point", "coordinates": [108.00054367509544, 20.148119054486184]}}, {"type": "Feature", "properties": {"norad_id": 29804, "name": "FENGYUN 1C DEB", "group": "fengyun-1c-debris", "lat": 24.259401311375914, "lon": -166.7958095722836, "alt_km": 895.7643226175514, "timestamp": "2025-12-27T10:28:59.065979+00:00", "meta": {"OBJECT_NAME": "FENGYUN 1C DEB", "OBJECT_ID": "1999-025CW", "EPOCH": "2025-12-26T23:36:52.511904", "MEAN_MOTION": 14.04323541, "ECCENTRICITY": 0.009707, "INCLINATION": 98.8047, "RA_OF_ASC_NODE": 8.7599, "ARG_OF_PERICENTER": 261.5987, "MEAN_ANOMALY": 126.6449, "EPHEMERIS_TYPE": 0, "CLASSIFICATION_TYPE": "U", "NORAD_CAT_ID": 29804, "ELEMENT_SET_NO": 999, "REV_AT_EPOCH": 97094, "BSTAR": 1.1023e-05, "MEAN_MOTION_DOT": -2.5e-07, "MEAN_MOTION_DDOT": 0}, "tle": {"line1": "1 29804U 99025CW  25360.98394111 -.00000025  00000+0  11023-4 0  9998", "line2": "2 29804  98.8047   8.7599 0097070 261.5987 126.6449 14.04323541970948"}}, "geometry": {"type": "Point", "coordinates": [-166.7958095722836, 24.259401311375914]}}, {"type": "Feature", "properties": {"norad_id": 29805, "name": "FENGYUN 1C DEB", "group": "fengyun-1c-debris", "lat": 78.4358583948734, "lon": -1.9896261450038886, "alt_km": 1023.5742383224624, "timestamp": "2025-12-27T10:28:59.065991+00:00", "meta": {"OBJECT_NAME": "FENGYUN 1C DEB", "OBJECT_ID": "1999-025CX", "EPOCH": "2025-12-27T03:04:08.586624", "MEAN_MOTION": 13.72662352, "ECCENTRICITY": 0.0188517, "INCLINATION": 99.4531, "RA_OF_ASC_NODE": 52.215, "ARG_OF_PERICENTER": 192.2892, "MEAN_ANOMALY": 167.3624, "EPHEMERIS_TYPE": 0, "CLASSIFICATION_TYPE": "U", "NORAD_CAT_ID": 29805, "ELEMENT_SET_NO": 999, "REV_AT_EPOCH": 94900, "BSTAR": 0.00017011, "MEAN_MOTION_DOT": 1.33e-06, "MEAN_MOTION_DDOT": 0}, "tle": {"line1": "1 29805U 99025CX  25361.12787716  .00000133  00000+0  17011-3 0  9994", "line2": "2 29805  99.4531  52.2150 0188517 192.2892 167.3624 13.72662352949003"}}, "geometry": {"type": "Point", "coordinates": [-1.9896261450038886, 78.4358583948734]}}, {"type": "Feature", "properties": {"norad_id": 29806, "name": "FENGYUN 1C DEB", "group": "fengyun-1c-debris", "lat": -30.885428770178834, "lon": -168.4538606891666, "alt_km": 838.1094010448287, "timestamp": "2025-12-27T10:28:59.066002+00:00", "meta": {"OBJECT_NAME": "FENGYUN 1C DEB", "OBJECT_ID": "1999-025CY", "EPOCH": "2025-12-25T23:44:59.531424", "MEAN_MOTION": 14.1203138, "ECCENTRICITY": 0.002802, "INCLINATION": 98.7123, "RA_OF_ASC_NODE": 15.4026, "ARG_OF_PERICENTER": 213.4796, "MEAN_ANOMALY": 205.1423, "EPHEMERIS_TYPE": 0, "CLASSIFICATION_TYPE": "U", "NORAD_CAT_ID": 29806, "ELEMENT_SET_NO": 999, "REV_AT_EPOCH": 97326, "BSTAR": 0.00051177, "MEAN_MOTION_DOT": 8.98e-06, "MEAN_MOTION_DDOT": 0}, "tle": {"line1": "1 29806U 99025CY  25359.98957791  .00000898  00000+0  51177-3 0  9997", "line2": "2 29806  98.7123  15.4026 0028020 213.4796 205.1423 14.12031380973266"}}, "geometry": {"type": "Point", "coordinates": [-168.4538606891666, -30.885428770178834]}}, {"type": "Feature", "properties": {"norad_id": 29807, "name": "FENGYUN 1C DEB", "group": "fengyun-1c-debris", "lat": 78.36984528574934, "lon": -125.89037315473706, "alt_km": 912.4867754018742, "timestamp": "2025-12-27T10:28:59.066012+00:00", "meta": {"OBJECT_NAME": "FENGYUN 1C DEB", "OBJECT_ID": "1999-025CZ", "EPOCH": "2025-12-26T23:47:24.006912", "MEAN_MOTION": 14.08671274, "ECCENTRICITY": 0.007906, "INCLINATION": 98.7548, "RA_OF_ASC_NODE": 5.1988, "ARG_OF_PERICENTER": 291.326, "MEAN_ANOMALY": 67.9484, "EPHEMERIS_TYPE": 0, "CLASSIFICATION_TYPE": "U", "NORAD_CAT_ID": 29807, "ELEMENT_SET_NO": 999, "REV_AT_EPOCH": 97295, "BSTAR": 0.00024961, "MEAN_MOTION_DOT": 3.99e-06, "MEAN_MOTION_DDOT": 0}, "tle": {"line1": "1 29807U 99025CZ  25360.99125008  .00000399  00000+0  24961-3 0  9996", "line2": "2 29807  98.7548   5.1988 0079060 291.3260  67.9484 14.08671274972955"}}, "geometry": {"type": "Point", "coordinates": [-125.89037315473706, 78.36984528574934]}}]}